{
  "type": "FeatureCollection",
  "features": [
    {
      "type": "Feature",
      "properties": {
        "norad_id": 40010,
        "name": "KAZEOSAT 2",
        "group": "resource",
        "lat": 22.992635693223686,
        "lon": 22.569014242957376,
        "alt_km": 607.1514323045249,
        "timestamp": "2025-12-21T11:31:42.498913+00:00",
        "meta_object_name": "KAZEOSAT 2",
        "meta_object_id": "2014-033A",
        "meta_epoch": "2025-12-21T04:21:26.146368",
        "meta_mean_motion": 14.85179073,
        "meta_eccentricity": 0.0008367,
        "meta_inclination": 97.5495,
        "meta_ra_of_asc_node": 199.0598,
        "meta_arg_of_pericenter": 177.3832,
        "meta_mean_anomaly": 182.7429,
        "meta_ephemeris_type": 0,
        "meta_classification_type": "U",
        "meta_norad_cat_id": 40010,
        "meta_element_set_no": 999,
        "meta_rev_at_epoch": 62253,
        "meta_bstar": 4.5298e-05,
        "meta_mean_motion_dot": 3.38e-06,
        "meta_mean_motion_ddot": 0,
        "tle_line1": "1 40010U 14033A   25355.18155262  .00000338  00000+0  45298-4 0  9991",
        "tle_line2": "2 40010  97.5495 199.0598 0008367 177.3832 182.7429 14.85179073622538"
      },
      "geometry": {
        "type": "Point",
        "coordinates": [
          22.569014242957376,
          22.992635693223686
        ]
      }
    },
    {
      "type": "Feature",
      "properties": {
        "norad_id": 40011,
        "name": "HODOYOSHI-4",
        "group": "resource",
        "lat": -42.045875556687605,
        "lon": -169.20657996524776,
        "alt_km": 626.2085944395621,
        "timestamp": "2025-12-21T11:31:42.498923+00:00",
        "meta_object_name": "HODOYOSHI-4",
        "meta_object_id": "2014-033B",
        "meta_epoch": "2025-12-21T03:38:52.267776",
        "meta_mean_motion": 14.87509331,
        "meta_eccentricity": 0.0023838,
        "meta_inclination": 97.5405,
        "meta_ra_of_asc_node": 183.6204,
        "meta_arg_of_pericenter": 172.3373,
        "meta_mean_anomaly": 187.8213,
        "meta_ephemeris_type": 0,
        "meta_classification_type": "U",
        "meta_norad_cat_id": 40011,
        "meta_element_set_no": 999,
        "meta_rev_at_epoch": 62233,
        "meta_bstar": 0.0001728,
        "meta_mean_motion_dot": 1.523e-05,
        "meta_mean_motion_ddot": 0,
        "tle_line1": "1 40011U 14033B   25355.15199384  .00001523  00000+0  17280-3 0  9998",
        "tle_line2": "2 40011  97.5405 183.6204 0023838 172.3373 187.8213 14.87509331622339"
      },
      "geometry": {
        "type": "Point",
        "coordinates": [
          -169.20657996524776,
          -42.045875556687605
        ]
      }
    },
    {
      "type": "Feature",
      "properties": {
        "norad_id": 40013,
        "name": "DEIMOS-2",
        "group": "resource",
        "lat": -71.12663626645892,
        "lon": -105.99589087954438,
        "alt_km": 596.9057876443958,
        "timestamp": "2025-12-21T11:31:42.498934+00:00",
        "meta_object_name": "DEIMOS-2",
        "meta_object_id": "2014-033D",
        "meta_epoch": "2025-12-21T05:25:10.856640",
        "meta_mean_motion": 14.93010508,
        "meta_eccentricity": 0.0001513,
        "meta_inclination": 97.6068,
        "meta_ra_of_asc_node": 230.746,
        "meta_arg_of_pericenter": 102.9773,
        "meta_mean_anomaly": 257.1616,
        "meta_ephemeris_type": 0,
        "meta_classification_type": "U",
        "meta_norad_cat_id": 40013,
        "meta_element_set_no": 999,
        "meta_rev_at_epoch": 61116,
        "meta_bstar": 0.00022215,
        "meta_mean_motion_dot": 2.255e-05,
        "meta_mean_motion_ddot": 0,
        "tle_line1": "1 40013U 14033D   25355.22582010  .00002255  00000+0  22215-3 0  9997",
        "tle_line2": "2 40013  97.6068 230.7460 0001513 102.9773 257.1616 14.93010508611161"
      },
      "geometry": {
        "type": "Point",
        "coordinates": [
          -105.99589087954438,
          -71.12663626645892
        ]
      }
    },
    {
      "type": "Feature",
      "properties": {
        "norad_id": 40015,
        "name": "HODOYOSHI-3",
        "group": "resource",
        "lat": 21.198482234949168,
        "lon": -16.088160499077375,
        "alt_km": 602.5819683982709,
        "timestamp": "2025-12-21T11:31:42.498945+00:00",
        "meta_object_name": "HODOYOSHI-3",
        "meta_object_id": "2014-033F",
        "meta_epoch": "2025-12-21T04:20:42.434880",
        "meta_mean_motion": 14.84832203,
        "meta_eccentricity": 0.003229,
        "meta_inclination": 97.6204,
        "meta_ra_of_asc_node": 160.6492,
        "meta_arg_of_pericenter": 219.1772,
        "meta_mean_anomaly": 140.7106,
        "meta_ephemeris_type": 0,
        "meta_classification_type": "U",
        "meta_norad_cat_id": 40015,
        "meta_element_set_no": 999,
        "meta_rev_at_epoch": 62120,
        "meta_bstar": 0.00013721,
        "meta_mean_motion_dot": 1.123e-05,
        "meta_mean_motion_ddot": 0,
        "tle_line1": "1 40015U 14033F   25355.18104670  .00001123  00000+0  13721-3 0  9991",
        "tle_line2": "2 40015  97.6204 160.6492 0032290 219.1772 140.7106 14.84832203621208"
      },
      "geometry": {
        "type": "Point",
        "coordinates": [
          -16.088160499077375,
          21.198482234949168
        ]
      }
    },
    {
      "type": "Feature",
      "properties": {
        "norad_id": 40053,
        "name": "SPOT 7",
        "group": "resource",
        "lat": -25.054637560432205,
        "lon": -126.4578730460165,
        "alt_km": 696.929640364865,
        "timestamp": "2025-12-21T11:31:42.498956+00:00",
        "meta_object_name": "SPOT 7",
        "meta_object_id": "2014-034A",
        "meta_epoch": "2025-12-21T04:00:58.110336",
        "meta_mean_motion": 14.60743427,
        "meta_eccentricity": 0.0001547,
        "meta_inclination": 98.0901,
        "meta_ra_of_asc_node": 57.0489,
        "meta_arg_of_pericenter": 85.6827,
        "meta_mean_anomaly": 274.4551,
        "meta_ephemeris_type": 0,
        "meta_classification_type": "U",
        "meta_norad_cat_id": 40053,
        "meta_element_set_no": 999,
        "meta_rev_at_epoch": 61114,
        "meta_bstar": 7.6e-05,
        "meta_mean_motion_dot": 3.25e-06,
        "meta_mean_motion_ddot": 0,
        "tle_line1": "1 40053U 14034A   25355.16733924  .00000325  00000+0  76000-4 0  9995",
        "tle_line2": "2 40053  98.0901  57.0489 0001547  85.6827 274.4551 14.60743427611146"
      },
      "geometry": {
        "type": "Point",
        "coordinates": [
          -126.4578730460165,
          -25.054637560432205
        ]
      }
    },
    {
      "type": "Feature",
      "properties": {
        "norad_id": 40072,
        "name": "SKYSAT-B",
        "group": "resource",
        "lat": -74.08765383206423,
        "lon": 88.58689470142475,
        "alt_km": 616.5523678070576,
        "timestamp": "2025-12-21T11:31:42.498966+00:00",
        "meta_object_name": "SKYSAT-B",
        "meta_object_id": "2014-037D",
        "meta_epoch": "2025-12-21T02:18:24.374016",
        "meta_mean_motion": 14.87353846,
        "meta_eccentricity": 0.0006659,
        "meta_inclination": 98.3623,
        "meta_ra_of_asc_node": 299.2438,
        "meta_arg_of_pericenter": 126.731,
        "meta_mean_anomaly": 233.4517,
        "meta_ephemeris_type": 0,
        "meta_classification_type": "U",
        "meta_norad_cat_id": 40072,
        "meta_element_set_no": 999,
        "meta_rev_at_epoch": 61948,
        "meta_bstar": 0.00013429,
        "meta_mean_motion_dot": 1.152e-05,
        "meta_mean_motion_ddot": 0,
        "tle_line1": "1 40072U 14037D   25355.09611544  .00001152  00000+0  13429-3 0  9998",
        "tle_line2": "2 40072  98.3623 299.2438 0006659 126.7310 233.4517 14.87353846619481"
      },
      "geometry": {
        "type": "Point",
        "coordinates": [
          88.58689470142475,
          -74.08765383206423
        ]
      }
    },
    {
      "type": "Feature",
      "properties": {
        "norad_id": 40115,
        "name": "WORLDVIEW-3 (WV-3)",
        "group": "resource",
        "lat": 75.95202590135479,
        "lon": 34.05956263298377,
        "alt_km": 606.7338561812339,
        "timestamp": "2025-12-21T11:31:42.498976+00:00",
        "meta_object_name": "WORLDVIEW-3 (WV-3)",
        "meta_object_id": "2014-048A",
        "meta_epoch": "2025-12-21T04:42:24.761088",
        "meta_mean_motion": 14.84665073,
        "meta_eccentricity": 0.0001832,
        "meta_inclination": 97.8769,
        "meta_ra_of_asc_node": 67.3721,
        "meta_arg_of_pericenter": 135.4397,
        "meta_mean_anomaly": 224.6965,
        "meta_ephemeris_type": 0,
        "meta_classification_type": "U",
        "meta_norad_cat_id": 40115,
        "meta_element_set_no": 999,
        "meta_rev_at_epoch": 61549,
        "meta_bstar": 9.1274e-05,
        "meta_mean_motion_dot": 7.19e-06,
        "meta_mean_motion_ddot": 0,
        "tle_line1": "1 40115U 14048A   25355.19611992  .00000719  00000+0  91274-4 0  9999",
        "tle_line2": "2 40115  97.8769  67.3721 0001832 135.4397 224.6965 14.84665073615494"
      },
      "geometry": {
        "type": "Point",
        "coordinates": [
          34.05956263298377,
          75.95202590135479
        ]
      }
    }
  ]
}